{"dragon": {"capsule": null, "mass_returned_kg": null, "mass_returned_lbs": null, "flight_time_sec": null, "manifest": null, "water_landing": null, "land_landing": null}, "name": "Iridium NEXT 5", "type": "Satellite", "reused": false, "launch": "5eb87d16ffd86e000604b363", "customers": ["Iridium Communications"], "norad_ids": [43249, 43250, 43251, 43252, 43253, 43254, 43255, 43256, 43257, 43258], "nationalities": ["United States"], "manufacturers": ["Thales Alenia Space"], "mass_kg": 9600, "mass_lbs": 21164.38, "orbit": "PO", "reference_system": "geocentric", "regime": "low-earth", "longitude": null, "semi_major_axis_km": 7155.799, "eccentricity": 0.0002306, "periapsis_km": 776.013, "apoapsis_km": 779.314, "inclination_deg": 86.3952, "period_min": 100.403, "lifespan_years": 15, "epoch": "2022-01-29T13:52:20.000Z", "mean_motion": 14.34219427, "raan": 238.8638, "arg_of_pericenter": 95.5604, "mean_anomaly": 264.5854, "id": "5eb0e4c7b6c3bb0006eeb220"}